CCSDS_OMM_VERS = 2.0
CREATION_DATE  = 
ORIGINATOR     = 

OBJECT_NAME    = COSMOS 2228
OBJECT_ID      = 1992-094A
CENTER_NAME    = EARTH
REF_FRAME      = TEME
TIME_SYSTEM    = UTC
MEAN_ELEMENT_THEORY = SGP/SGP4

EPOCH          = 2025-11-26T12:15:46.908576
MEAN_MOTION    = 14.96616918
ECCENTRICITY   = .0016433
INCLINATION    = 82.5178
RA_OF_ASC_NODE = 336.0632
ARG_OF_PERICENTER = 291.4977
MEAN_ANOMALY   = 68.4493

EPHEMERIS_TYPE = 0
CLASSIFICATION_TYPE = U
NORAD_CAT_ID   = 22286
ELEMENT_SET_NO = 999
REV_AT_EPOCH   = 76062
BSTAR          = .2643E-3
MEAN_MOTION_DOT = .3043E-4
MEAN_MOTION_DDOT = 0

CCSDS_OMM_VERS = 2.0
CREATION_DATE  = 
ORIGINATOR     = 

OBJECT_NAME    = SL-16 R/B
OBJECT_ID      = 1993-016B
CENTER_NAME    = EARTH
REF_FRAME      = TEME
TIME_SYSTEM    = UTC
MEAN_ELEMENT_THEORY = SGP/SGP4

EPOCH          = 2025-11-26T12:28:36.469056
MEAN_MOTION    = 14.15288984
ECCENTRICITY   = .0008201
INCLINATION    = 71.0089
RA_OF_ASC_NODE = 71.8678
ARG_OF_PERICENTER = 128.2057
MEAN_ANOMALY   = 231.9805

EPHEMERIS_TYPE = 0
CLASSIFICATION_TYPE = U
NORAD_CAT_ID   = 22566
ELEMENT_SET_NO = 999
REV_AT_EPOCH   = 68757
BSTAR          = .48465E-4
MEAN_MOTION_DOT = .47E-6
MEAN_MOTION_DDOT = 0

CCSDS_OMM_VERS = 2.0
CREATION_DATE  = 
ORIGINATOR     = 

OBJECT_NAME    = COSMOS 2242
OBJECT_ID      = 1993-024A
CENTER_NAME    = EARTH
REF_FRAME      = TEME
TIME_SYSTEM    = UTC
MEAN_ELEMENT_THEORY = SGP/SGP4

EPOCH          = 2025-11-26T09:11:20.112288
MEAN_MOTION    = 14.96006807
ECCENTRICITY   = .00149051
INCLINATION    = 82.5199
RA_OF_ASC_NODE = 5.4781
ARG_OF_PERICENTER = 294.9318
MEAN_ANOMALY   = 65.0355

EPHEMERIS_TYPE = 0
CLASSIFICATION_TYPE = U
NORAD_CAT_ID   = 22626
ELEMENT_SET_NO = 999
REV_AT_EPOCH   = 76494
BSTAR          = .24443556E-3
MEAN_MOTION_DOT = .2772E-4
MEAN_MOTION_DDOT = 0

CCSDS_OMM_VERS = 2.0
CREATION_DATE  = 
ORIGINATOR     = 

OBJECT_NAME    = SL-16 R/B
OBJECT_ID      = 1993-059B
CENTER_NAME    = EARTH
REF_FRAME      = TEME
TIME_SYSTEM    = UTC
MEAN_ELEMENT_THEORY = SGP/SGP4

EPOCH          = 2025-11-26T10:15:49.027392
MEAN_MOTION    = 14.17207953
ECCENTRICITY   = .0017004
INCLINATION    = 70.9898
RA_OF_ASC_NODE = 228.8823
ARG_OF_PERICENTER = 359.7814
MEAN_ANOMALY   = 0.3299

EPHEMERIS_TYPE = 0
CLASSIFICATION_TYPE = U
NORAD_CAT_ID   = 22803
ELEMENT_SET_NO = 999
REV_AT_EPOCH   = 66490
BSTAR          = -.32733E-4
MEAN_MOTION_DOT = -.114E-5
MEAN_MOTION_DDOT = 0

CCSDS_OMM_VERS = 2.0
CREATION_DATE  = 
ORIGINATOR     = 

OBJECT_NAME    = ARIANE 40 R/B
OBJECT_ID      = 1993-061H
CENTER_NAME    = EARTH
REF_FRAME      = TEME
TIME_SYSTEM    = UTC
MEAN_ELEMENT_THEORY = SGP/SGP4

EPOCH          = 2025-11-26T04:58:30.992160
MEAN_MOTION    = 14.32785415
ECCENTRICITY   = .00099736
INCLINATION    = 98.5095
RA_OF_ASC_NODE = 36.0366
ARG_OF_PERICENTER = 226.1608
MEAN_ANOMALY   = 133.8753

EPHEMERIS_TYPE = 0
CLASSIFICATION_TYPE = U
NORAD_CAT_ID   = 22830
ELEMENT_SET_NO = 999
REV_AT_EPOCH   = 67928
BSTAR          = .12331106E-3
MEAN_MOTION_DOT = .293E-5
MEAN_MOTION_DDOT = 0

CCSDS_OMM_VERS = 2.0
CREATION_DATE  = 
ORIGINATOR     = 

OBJECT_NAME    = COSMOS 2278
OBJECT_ID      = 1994-023A
CENTER_NAME    = EARTH
REF_FRAME      = TEME
TIME_SYSTEM    = UTC
MEAN_ELEMENT_THEORY = SGP/SGP4

EPOCH          = 2025-11-26T11:33:05.202144
MEAN_MOTION    = 14.14349337
ECCENTRICITY   = .0009284
INCLINATION    = 71.0559
RA_OF_ASC_NODE = 31.0254
ARG_OF_PERICENTER = 201.9813
MEAN_ANOMALY   = 158.0912

EPHEMERIS_TYPE = 0
CLASSIFICATION_TYPE = U
NORAD_CAT_ID   = 23087
ELEMENT_SET_NO = 999
REV_AT_EPOCH   = 63021
BSTAR          = .10711E-3
MEAN_MOTION_DOT = .158E-5
MEAN_MOTION_DDOT = 0

CCSDS_OMM_VERS = 2.0
CREATION_DATE  = 
ORIGINATOR     = 

OBJECT_NAME    = SL-16 R/B
OBJECT_ID      = 1994-023B
CENTER_NAME    = EARTH
REF_FRAME      = TEME
TIME_SYSTEM    = UTC
MEAN_ELEMENT_THEORY = SGP/SGP4

EPOCH          = 2025-11-26T07:00:41.550048
MEAN_MOTION    = 14.14992632
ECCENTRICITY   = .00011074
INCLINATION    = 70.9994
RA_OF_ASC_NODE = 288.0258
ARG_OF_PERICENTER = 109.9255
MEAN_ANOMALY   = 250.1987

EPHEMERIS_TYPE = 0
CLASSIFICATION_TYPE = U
NORAD_CAT_ID   = 23088
ELEMENT_SET_NO = 999
REV_AT_EPOCH   = 63146
BSTAR          = .14005228E-3
MEAN_MOTION_DOT = .223E-5
MEAN_MOTION_DDOT = 0

CCSDS_OMM_VERS = 2.0
CREATION_DATE  = 
ORIGINATOR     = 

OBJECT_NAME    = SL-16 R/B
OBJECT_ID      = 1994-074B
CENTER_NAME    = EARTH
REF_FRAME      = TEME
TIME_SYSTEM    = UTC
MEAN_ELEMENT_THEORY = SGP/SGP4

EPOCH          = 2025-11-26T12:41:24.474336
MEAN_MOTION    = 14.79261983
ECCENTRICITY   = .0006317
INCLINATION    = 97.7221
RA_OF_ASC_NODE = 0.4765
ARG_OF_PERICENTER = 184.7856
MEAN_ANOMALY   = 344.6456

EPHEMERIS_TYPE = 0
CLASSIFICATION_TYPE = U
NORAD_CAT_ID   = 23343
ELEMENT_SET_NO = 999
REV_AT_EPOCH   = 67199
BSTAR          = .91255E-4
MEAN_MOTION_DOT = .629E-5
MEAN_MOTION_DDOT = 0

CCSDS_OMM_VERS = 2.0
CREATION_DATE  = 
ORIGINATOR     = 

OBJECT_NAME    = SL-16 R/B
OBJECT_ID      = 1994-077B
CENTER_NAME    = EARTH
REF_FRAME      = TEME
TIME_SYSTEM    = UTC
MEAN_ELEMENT_THEORY = SGP/SGP4

EPOCH          = 2025-11-26T02:26:57.218496
MEAN_MOTION    = 14.15547129
ECCENTRICITY   = .00045776
INCLINATION    = 70.9821
RA_OF_ASC_NODE = 210.4143
ARG_OF_PERICENTER = 297.5489
MEAN_ANOMALY   = 62.5169

EPHEMERIS_TYPE = 0
CLASSIFICATION_TYPE = U
NORAD_CAT_ID   = 23405
ELEMENT_SET_NO = 999
REV_AT_EPOCH   = 60157
BSTAR          = -.92227186E-4
MEAN_MOTION_DOT = -.228E-5
MEAN_MOTION_DDOT = 0

CCSDS_OMM_VERS = 2.0
CREATION_DATE  = 
ORIGINATOR     = 

OBJECT_NAME    = ARIANE 40+ R/B
OBJECT_ID      = 1995-021B
CENTER_NAME    = EARTH
REF_FRAME      = TEME
TIME_SYSTEM    = UTC
MEAN_ELEMENT_THEORY = SGP/SGP4

EPOCH          = 2025-11-26T04:31:19.755840
MEAN_MOTION    = 14.39676416
ECCENTRICITY   = .00079119
INCLINATION    = 98.4669
RA_OF_ASC_NODE = 37.9757
ARG_OF_PERICENTER = 93.1316
MEAN_ANOMALY   = 290.6444

EPHEMERIS_TYPE = 0
CLASSIFICATION_TYPE = U
NORAD_CAT_ID   = 23561
ELEMENT_SET_NO = 999
REV_AT_EPOCH   = 60435
BSTAR          = .13871326E-3
MEAN_MOTION_DOT = .39E-5
MEAN_MOTION_DDOT = 0

CCSDS_OMM_VERS = 2.0
CREATION_DATE  = 
ORIGINATOR     = 

OBJECT_NAME    = SL-16 R/B
OBJECT_ID      = 1995-058B
CENTER_NAME    = EARTH
REF_FRAME      = TEME
TIME_SYSTEM    = UTC
MEAN_ELEMENT_THEORY = SGP/SGP4

EPOCH          = 2025-11-26T09:16:41.876256
MEAN_MOTION    = 14.15474770
ECCENTRICITY   = .0014924
INCLINATION    = 71.0225
RA_OF_ASC_NODE = 37.1378
ARG_OF_PERICENTER = 275.8928
MEAN_ANOMALY   = 84.0494

EPHEMERIS_TYPE = 0
CLASSIFICATION_TYPE = U
NORAD_CAT_ID   = 23705
ELEMENT_SET_NO = 999
REV_AT_EPOCH   = 55323
BSTAR          = .40869E-4
MEAN_MOTION_DOT = .32E-6
MEAN_MOTION_DDOT = 0

CCSDS_OMM_VERS = 2.0
CREATION_DATE  = 
ORIGINATOR     = 

OBJECT_NAME    = SL-16 R/B
OBJECT_ID      = 1996-051B
CENTER_NAME    = EARTH
REF_FRAME      = TEME
TIME_SYSTEM    = UTC
MEAN_ELEMENT_THEORY = SGP/SGP4

EPOCH          = 2025-11-26T11:35:14.135136
MEAN_MOTION    = 14.12394261
ECCENTRICITY   = .0018873
INCLINATION    = 70.7608
RA_OF_ASC_NODE = 33.6947
ARG_OF_PERICENTER = 281.4694
MEAN_ANOMALY   = 78.4306

EPHEMERIS_TYPE = 0
CLASSIFICATION_TYPE = U
NORAD_CAT_ID   = 24298
ELEMENT_SET_NO = 999
REV_AT_EPOCH   = 50707
BSTAR          = .18147E-4
MEAN_MOTION_DOT = -.16E-6
MEAN_MOTION_DDOT = 0

