COSMOS 2228             
1 22286U 92094A   25330.51095959  .00003043  00000+0  26430-3 0  9997
2 22286  82.5178 336.0632 0016433 291.4977  68.4493 14.96616918760628
SL-16 R/B               
1 22566U 93016B   25330.51986654  .00000047  00000+0  48465-4 0  9998
2 22566  71.0089  71.8678 0008201 128.2057 231.9805 14.15288984687572
COSMOS 2242             
1 22626U 93024A   25330.38287167  .00002772  00000+0  24444-3 0  9999
2 22626  82.5199   5.4781 0014905 294.9318  65.0355 14.96006807764949
SL-16 R/B               
1 22803U 93059B   25330.42765078 -.00000114  00000+0 -32733-4 0  9992
2 22803  70.9898 228.8823 0017004 359.7814   0.3299 14.17207953664907
ARIANE 40 R/B           
1 22830U 93061H   25330.20730315  .00000293  00000+0  12331-3 0  9994
2 22830  98.5095  36.0366 0009973 226.1608 133.8753 14.32785415679282
COSMOS 2278             
1 23087U 94023A   25330.48131021  .00000158  00000+0  10711-3 0  9997
2 23087  71.0559  31.0254 0009284 201.9813 158.0912 14.14349337630218
SL-16 R/B               
1 23088U 94023B   25330.29214757  .00000223  00000+0  14005-3 0  9998
2 23088  70.9994 288.0258 0001107 109.9255 250.1987 14.14992632631467
SL-16 R/B               
1 23343U 94074B   25330.52875549  .00000629  00000+0  91255-4 0  9999
2 23343  97.7221   0.4765 0006317 184.7856 344.6456 14.79261983671997
SL-16 R/B               
1 23405U 94077B   25330.10205114 -.00000228  00000+0 -92227-4 0  9997
2 23405  70.9821 210.4143 0004577 297.5489  62.5169 14.15547129601572
ARIANE 40+ R/B          
1 23561U 95021B   25330.18842310  .00000390  00000+0  13871-3 0  9998
2 23561  98.4669  37.9757 0007911  93.1316 290.6444 14.39676416604354
SL-16 R/B               
1 23705U 95058B   25330.38659579  .00000032  00000+0  40869-4 0  9994
2 23705  71.0225  37.1378 0014924 275.8928  84.0494 14.15474770553233
SL-16 R/B               
1 24298U 96051B   25330.48280249 -.00000016  00000+0  18147-4 0  9998
2 24298  70.7608  33.6947 0018873 281.4694  78.4306 14.12394261507078
